UTMN 2 (RS27S)          
1 57203U 23091AP  26204.82233475  .00012462  00000+0  39478-3 0  9998
2 57203  97.5069 272.5683 0006078 314.5905  45.4841 15.32860424170151
SITRO-AIS 12 (SMIRENNIY)
1 57204U 23091AQ  26204.87052230  .00019447  00000+0  49422-3 0  9992
2 57204  97.5075 276.5111 0004325 292.9126  67.1662 15.39664119170417
SITRO-AIS 11 (SHEFFER)  
1 57208U 23091AU  26204.80855147  .00019366  00000+0  48500-3 0  9993
2 57208  97.5072 276.7178 0004255 292.2639  67.8155 15.40112816170426
H2SAT (HEINRICH HERTZ)  
1 57213U 23093A   26204.61243185  .00000007  00000+0  00000+0 0  9994
2 57213   0.0270 105.6822 0000743 232.6551 184.1888  1.00272596 11283
KUZGTU 1 (RS47S)        
1 57217U 23091AV  26204.84886238  .00011695  00000+0  39709-3 0  9990
2 57217  97.5046 269.7177 0009230 333.5546  26.5222 15.30617705169984
QIANKUN-1               
1 57422U 23103B   26202.46773794  .00007900  16683-5  96814-5 0  9996
2 57422  96.1460 244.8830 0034106 125.1759 235.2729 16.07673823172802
FENGYUN 3F              
1 57490U 23111A   26204.82748892  .00000018  00000+0  28776-4 0  9997
2 57490  98.6820 274.1502 0001108  75.0063 285.1236 14.19944462154069
HJ-2F                   
1 57519U 23116A   26204.85880424  .00007895  00000+0  34059-3 0  9995
2 57519  97.3857 209.4522 0006261 273.2894  86.7626 15.22787154164336
XRISM                   
1 57800U 23137A   26204.88037308  .00004891  00000+0  26674-3 0  9996
2 57800  31.0020 121.8633 0007772 332.4093  27.6132 15.12722151158427
METEOR-M2 4             
1 59051U 24039A   26204.83157499  .00000016  00000+0  26973-4 0  9995
2 59051  98.7038 163.6733 0008180  67.3015 292.9027 14.22432851124476
GRBBETA                 
1 60237U 24128C   26204.12269231  .00003245  00000+0  22788-3 0  9998
2 60237  61.9898  90.1657 0035998 142.3680 217.9942 15.06847809111686
TRANSPORTER-11 OBJECT A 
1 60468U 24149A   26204.18023698  .00008477  00000+0  26465-3 0  9996
2 60468  97.3718 284.0087 0005007  97.3068 262.8743 15.33434067107573
WARATAH SEED-1          
1 60469U 24149B   26204.19328405  .00014243  00000+0  39834-3 0  9994
2 60469  97.3677 284.8203 0003337 105.3222 254.8391 15.36772032107640
PHISAT 2                
1 60470U 24149C   26204.11849956  .00006678  00000+0  22200-3 0  9999
2 60470  97.3743 283.1431 0003426 108.4029 251.7585 15.31509055107491
LEMUR-2-TOMATOKECHUP    
1 60471U 24149D   26204.18932006  .00011667  00000+0  32750-3 0  9991
2 60471  97.3787 286.3428 0003458 108.0349 252.1272 15.36706847107690
CONNECTA IOT-1          
1 60472U 24149E   26204.15037919  .00003846  00000+0  16271-3 0  9998
2 60472  97.3741 279.8370 0003284 125.8867 234.2676 15.23785862107276
LOPEN                   
1 60473U 24149F   26204.18837529  .00016447  00000+0  40526-3 0  9998
2 60473  97.3765 287.8606 0003092 119.0270 241.1287 15.40642373107806
ROCK                    
1 60474U 24149G   26204.69478204  .00015572  00000+0  38380-3 0  9999
2 60474  97.3763 288.3850 0003352 114.5223 245.6373 15.40646149107887
CONNECTA IOT-3          
1 60475U 24149H   26204.17145087  .00003988  00000+0  16853-3 0  9992
2 60475  97.3721 279.6003 0004427 124.1976 235.9681 15.23800597107289
QUBE                    
1 60476U 24149J   26204.17808677  .00026956  00000+0  50209-3 0  9997
2 60476  97.3765 291.3467 0003326 113.4869 246.6732 15.48812330108037
WREN-1                  
1 60478U 24149L   26204.66318178  .00022853  00000+0  52114-3 0  9994
2 60478  97.3750 289.1923 0005774 127.6441 232.5332 15.42899911107940
TOMORROW-S1             
1 60479U 24149M   26204.49475873  .00007844  00000+0  24707-3 0  9992
2 60479  97.3737 284.8620 0004332 113.6113 246.5584 15.33181601107654
FLOCK 4BE-18            
1 60480U 24149N   26204.67048575  .00018379  00000+0  41923-3 0  9993
2 60480  97.3718 288.8084 0005393 121.7969 238.3805 15.42939225107939
FLOCK 4BE-7             
1 60481U 24149P   26204.19109156  .00026956  00000+0  63799-3 0  9999
2 60481  97.3746 287.6020 0004464 129.4646 230.6996 15.41756969107794
TOMORROW-S2             
1 60485U 24149T   26204.45900755  .00007552  00000+0  23759-3 0  9999
2 60485  97.3806 285.3503 0004400 128.9003 231.2632 15.33231045107649
FLOCK 4BE-36            
1 60486U 24149U   26204.16869911  .00017889  00000+0  39729-3 0  9994
2 60486  97.3733 289.0528 0005177 131.0142 229.1555 15.43742236107907
FLOCK 4BE-25            
1 60487U 24149V   26204.23184163  .00014630  00000+0  37195-3 0  9998
2 60487  97.3785 287.6475 0003997 124.8086 235.3536 15.39710741107780
FLOCK 4BE-31            
1 60488U 24149W   26204.68207838  .00021526  00000+0  45112-3 0  9993
2 60488  97.3786 290.5435 0004078 129.4377 230.7233 15.45427414108015
