OBJECT_NAME,OBJECT_ID,EPOCH,MEAN_MOTION,ECCENTRICITY,INCLINATION,RA_OF_ASC_NODE,ARG_OF_PERICENTER,MEAN_ANOMALY,EPHEMERIS_TYPE,CLASSIFICATION_TYPE,NORAD_CAT_ID,ELEMENT_SET_NO,REV_AT_EPOCH,BSTAR,MEAN_MOTION_DOT,MEAN_MOTION_DDOT
UTMN 2 (RS27S),2023-091AP,2026-07-23T19:44:09.722400,15.32860424,.0006078,97.5069,272.5683,314.5905,45.4841,0,U,57203,999,17015,.39478E-3,.12462E-3,0
SITRO-AIS 12 (SMIRENNIY),2023-091AQ,2026-07-23T20:53:33.126720,15.39664119,.0004325,97.5075,276.5111,292.9126,67.1662,0,U,57204,999,17041,.49422E-3,.19447E-3,0
SITRO-AIS 11 (SHEFFER),2023-091AU,2026-07-23T19:24:18.847008,15.40112816,.0004255,97.5072,276.7178,292.2639,67.8155,0,U,57208,999,17042,.485E-3,.19366E-3,0
H2SAT (HEINRICH HERTZ),2023-093A,2026-07-23T14:41:54.111840,1.00272596,.0000743,0.0270,105.6822,232.6551,184.1888,0,U,57213,999,1128,0,.7E-7,0
KUZGTU 1 (RS47S),2023-091AV,2026-07-23T20:22:21.709632,15.30617705,.000923,97.5046,269.7177,333.5546,26.5222,0,U,57217,999,16998,.39709E-3,.11695E-3,0
QIANKUN-1,2023-103B,2026-07-21T11:13:32.558016,16.07673823,.00341064,96.1460,244.8830,125.1759,235.2729,0,U,57422,999,17280,.9681363E-5,.79E-4,.166831E-5
FENGYUN 3F,2023-111A,2026-07-23T19:51:35.042688,14.19944462,.0001108,98.6820,274.1502,75.0063,285.1236,0,U,57490,999,15406,.28776E-4,.18E-6,0
HJ-2F,2023-116A,2026-07-23T20:36:40.686336,15.22787154,.0006261,97.3857,209.4522,273.2894,86.7626,0,U,57519,999,16433,.34059E-3,.7895E-4,0
XRISM,2023-137A,2026-07-23T21:07:44.234112,15.12722151,.0007772,31.0020,121.8633,332.4093,27.6132,0,U,57800,999,15842,.26674E-3,.4891E-4,0
METEOR-M2 4,2024-039A,2026-07-23T19:57:28.079136,14.22432851,.000818,98.7038,163.6733,67.3015,292.9027,0,U,59051,999,12447,.26973E-4,.16E-6,0
GRBBETA,2024-128C,2026-07-23T02:56:40.615584,15.06847809,.00359982,61.9898,90.1657,142.3680,217.9942,0,U,60237,999,11168,.22788353E-3,.3245E-4,0
TRANSPORTER-11 OBJECT A,2024-149A,2026-07-23T04:19:32.475072,15.33434067,.0005007,97.3718,284.0087,97.3068,262.8743,0,U,60468,999,10757,.26465E-3,.8477E-4,0
WARATAH SEED-1,2024-149B,2026-07-23T04:38:19.741920,15.36772032,.0003337,97.3677,284.8203,105.3222,254.8391,0,U,60469,999,10764,.39834E-3,.14243E-3,0
PHISAT 2,2024-149C,2026-07-23T02:50:38.361984,15.31509055,.00034264,97.3743,283.1431,108.4029,251.7585,0,U,60470,999,10749,.22199875E-3,.6678E-4,0
LEMUR-2-TOMATOKECHUP,2024-149D,2026-07-23T04:32:37.253184,15.36706847,.0003458,97.3787,286.3428,108.0349,252.1272,0,U,60471,999,10769,.3275E-3,.11667E-3,0
CONNECTA IOT-1,2024-149E,2026-07-23T03:36:32.762016,15.23785862,.00032844,97.3741,279.8370,125.8867,234.2676,0,U,60472,999,10727,.16270991E-3,.3846E-4,0
LOPEN,2024-149F,2026-07-23T04:31:15.625056,15.40642373,.0003092,97.3765,287.8606,119.0270,241.1287,0,U,60473,999,10780,.40526E-3,.16447E-3,0
ROCK,2024-149G,2026-07-23T16:40:29.168256,15.40646149,.0003352,97.3763,288.3850,114.5223,245.6373,0,U,60474,999,10788,.3838E-3,.15572E-3,0
CONNECTA IOT-3,2024-149H,2026-07-23T04:06:53.355168,15.23800597,.0004427,97.3721,279.6003,124.1976,235.9681,0,U,60475,999,10728,.16853E-3,.3988E-4,0
QUBE,2024-149J,2026-07-23T04:16:26.696928,15.48812330,.00033261,97.3765,291.3467,113.4869,246.6732,0,U,60476,999,10803,.50209264E-3,.26956E-3,0
WREN-1,2024-149L,2026-07-23T15:54:58.905792,15.42899911,.0005774,97.3750,289.1923,127.6441,232.5332,0,U,60478,999,10794,.52114E-3,.22853E-3,0
TOMORROW-S1,2024-149M,2026-07-23T11:52:27.154272,15.33181601,.0004332,97.3737,284.8620,113.6113,246.5584,0,U,60479,999,10765,.24707E-3,.7844E-4,0
FLOCK 4BE-18,2024-149N,2026-07-23T16:05:29.968800,15.42939225,.0005393,97.3718,288.8084,121.7969,238.3805,0,U,60480,999,10793,.41923E-3,.18379E-3,0
FLOCK 4BE-7,2024-149P,2026-07-23T04:35:10.310784,15.41756969,.0004464,97.3746,287.6020,129.4646,230.6996,0,U,60481,999,10779,.63799E-3,.26956E-3,0
TOMORROW-S2,2024-149T,2026-07-23T11:00:58.252320,15.33231045,.00044,97.3806,285.3503,128.9003,231.2632,0,U,60485,999,10764,.23759E-3,.7552E-4,0
FLOCK 4BE-36,2024-149U,2026-07-23T04:02:55.603104,15.43742236,.0005177,97.3733,289.0528,131.0142,229.1555,0,U,60486,999,10790,.39729E-3,.17889E-3,0
FLOCK 4BE-25,2024-149V,2026-07-23T05:33:51.116832,15.39710741,.0003997,97.3785,287.6475,124.8086,235.3536,0,U,60487,999,10778,.37195E-3,.1463E-3,0
FLOCK 4BE-31,2024-149W,2026-07-23T16:22:11.572032,15.45427414,.0004078,97.3786,290.5435,129.4377,230.7233,0,U,60488,999,10801,.45112E-3,.21526E-3,0
